[{"OBJECT_NAME":"TEVEL2-6","OBJECT_ID":"2025-052F","EPOCH":"2026-03-09T15:35:24.554400","MEAN_MOTION":15.30760889,"ECCENTRICITY":0.0004769,"INCLINATION":97.4016,"RA_OF_ASC_NODE":325.0381,"ARG_OF_PERICENTER":95.6604,"MEAN_ANOMALY":264.5181,"EPHEMERIS_TYPE":0,"CLASSIFICATION_TYPE":"U","NORAD_CAT_ID":63215,"ELEMENT_SET_NO":999,"REV_AT_EPOCH":5486,"BSTAR":0.00070909,"MEAN_MOTION_DOT":0.00021046,"MEAN_MOTION_DDOT":0},{"OBJECT_NAME":"STARLINK-33768","OBJECT_ID":"2025-069X","EPOCH":"2026-03-09T11:33:06.376320","MEAN_MOTION":15.30194017,"ECCENTRICITY":0.00010893,"INCLINATION":53.158,"RA_OF_ASC_NODE":143.3729,"ARG_OF_PERICENTER":46.5569,"MEAN_ANOMALY":313.5523,"EPHEMERIS_TYPE":0,"CLASSIFICATION_TYPE":"U","NORAD_CAT_ID":63454,"ELEMENT_SET_NO":999,"REV_AT_EPOCH":5337,"BSTAR":0.0012609334,"MEAN_MOTION_DOT":0.00037166,"MEAN_MOTION_DDOT":0}]
